[{"OBJECT_NAME":"ONEWEB-0601","OBJECT_ID":"2022-166Z","EPOCH":"2026-03-09T13:39:28.282176","MEAN_MOTION":13.21826127,"ECCENTRICITY":0.000131,"INCLINATION":87.9164,"RA_OF_ASC_NODE":263.8624,"ARG_OF_PERICENTER":88.9525,"MEAN_ANOMALY":271.1759,"EPHEMERIS_TYPE":0,"CLASSIFICATION_TYPE":"U","NORAD_CAT_ID":54665,"ELEMENT_SET_NO":999,"REV_AT_EPOCH":15854,"BSTAR":0.0001456,"MEAN_MOTION_DOT":7.3e-7,"MEAN_MOTION_DDOT":0},{"OBJECT_NAME":"THORAD AGENA D DEB","OBJECT_ID":"1970-025TK","EPOCH":"2026-03-08T20:30:06.788736","MEAN_MOTION":13.11023788,"ECCENTRICITY":0.01279366,"INCLINATION":100.0768,"RA_OF_ASC_NODE":86.1332,"ARG_OF_PERICENTER":178.2703,"MEAN_ANOMALY":181.8875,"EPHEMERIS_TYPE":0,"CLASSIFICATION_TYPE":"U","NORAD_CAT_ID":42553,"ELEMENT_SET_NO":999,"REV_AT_EPOCH":54241,"BSTAR":0.00016781361,"MEAN_MOTION_DOT":2.0e-7,"MEAN_MOTION_DDOT":0}]
